OBJECT_NAME,OBJECT_ID,EPOCH,MEAN_MOTION,ECCENTRICITY,INCLINATION,RA_OF_ASC_NODE,ARG_OF_PERICENTER,MEAN_ANOMALY,EPHEMERIS_TYPE,CLASSIFICATION_TYPE,NORAD_CAT_ID,ELEMENT_SET_NO,REV_AT_EPOCH,BSTAR,MEAN_MOTION_DOT,MEAN_MOTION_DDOT
COSMOS 2534 (758),2019-030A,2026-07-21T09:41:26.998080,2.13102247,.00134529,64.3710,191.4642,275.0116,193.9671,0,U,44299,999,5565,0,.91E-6,0
BEIDOU-3 IGSO-2 (C39),2019-035A,2026-07-21T18:25:21.211104,1.00289985,.0039051,55.2573,158.5594,212.8700,322.7485,0,U,44337,999,2601,0,-.106E-5,0
GPS BIII-2  (PRN 18),2019-056A,2026-07-21T01:11:17.426400,2.00570401,.00636708,55.6187,329.7967,198.2481,160.1560,0,U,44506,999,5074,0,-.11E-5,0
BEIDOU-3 M24 (C46),2019-061A,2026-07-21T01:41:33.938880,1.86229270,.00087106,54.3973,181.5850,0.1669,359.8142,0,U,44542,999,4642,0,.79E-6,0
BEIDOU-3 M23 (C45),2019-061B,2026-07-21T08:51:16.453152,1.86227442,.0006008,54.3962,181.5433,341.8135,129.6135,0,U,44543,999,4643,0,.79E-6,0
EUTELSAT 5 WEST B (EGNOS/PRN 121),2019-067A,2026-07-21T14:45:48.845088,1.00271842,.00032396,0.0744,324.8999,153.9630,36.9490,0,U,44624,999,2478,0,-.41E-6,0
BEIDOU-3 M22 (C44),2019-078A,2026-07-20T21:51:42.681888,1.86227204,.00056032,53.9028,298.6402,50.2813,309.8054,0,U,44793,999,4527,0,-.98E-6,0
BEIDOU-3 M21 (C43),2019-078B,2026-07-19T23:26:38.266656,1.86227606,.00035251,53.8770,298.6333,49.7600,310.3090,0,U,44794,999,4526,0,-.96E-6,0
COSMOS 2544 (759),2019-088A,2026-07-18T22:32:17.742336,2.13102904,.00120499,65.5828,72.6716,253.1294,106.8089,0,U,44850,999,5139,0,-.38E-6,0
BEIDOU-3 M19 (C41),2019-090A,2026-07-21T13:34:39.537696,1.86231479,.00165403,56.5895,61.6538,297.1019,245.8304,0,U,44864,999,4487,0,-.8E-6,0
BEIDOU-3 M20 (C42),2019-090B,2026-07-20T08:06:41.783040,1.86231473,.00137508,56.5902,61.7294,313.4468,215.9166,0,U,44865,999,4483,0,-.78E-6,0
BEIDOU-3 G2 (C60),2020-017A,2026-07-21T15:28:06.688704,1.00272603,.00019944,2.9329,47.8340,57.2509,146.3712,0,U,45344,999,2360,0,-.14E-5,0
COSMOS 2545 (760),2020-018A,2026-07-20T01:44:27.975264,2.13102411,.00099012,64.3333,311.2627,230.0825,129.8537,0,U,45358,999,4936,0,-.83E-6,0
BEIDOU-3 G3 (C61),2020-040A,2026-07-21T15:18:58.209408,1.00273705,.00022992,2.5301,67.5062,314.0816,258.0922,0,U,45807,999,2241,0,-.354E-5,0
GPS BIII-3  (PRN 23),2020-041A,2026-07-20T21:32:19.513248,2.00557989,.00655025,56.6926,27.6360,204.6753,340.8282,0,U,45854,999,4471,0,-.87E-6,0
GALAXY 30 (WAAS/PRN 135),2020-056C,2026-07-21T14:11:52.099872,1.00270965,.00021953,0.0168,64.3610,52.3892,270.5573,0,U,46114,999,2163,0,.39E-6,0
COSMOS 2547 (705K),2020-075A,2026-07-20T06:17:43.424160,2.13099966,.00094658,64.6016,191.3717,239.9348,119.9732,0,U,46805,999,4461,0,.83E-6,0
GPS BIII-4  (PRN 14),2020-078A,2026-07-21T09:45:04.381344,2.00565095,.00746833,53.9766,209.3904,207.9552,322.5011,0,U,46826,999,4219,0,.76E-6,0
GPS BIII-5  (PRN 11),2021-054A,2026-07-21T10:09:09.233856,2.00567035,.00266002,55.1560,331.0832,228.5821,140.3062,0,U,48859,999,3744,0,-.112E-5,0
QZS-1R (QZSS/PRN 196),2021-096A,2026-07-19T13:27:51.734016,1.00244085,.07555125,37.5263,79.1015,272.3091,279.1178,0,U,49336,999,1733,0,-.322E-5,0
GSAT0223 (GALILEO 27),2021-116A,2026-07-20T08:57:14.296032,1.70476368,.00024821,57.1482,340.7789,195.0305,131.7493,0,U,49809,999,2874,0,-.107E-5,0
GSAT0224 (GALILEO 28),2021-116B,2026-07-19T22:53:39.367968,1.70476408,.00019036,57.1487,340.7887,182.1498,0.0180,0,U,49810,999,2876,0,-.107E-5,0
COSMOS 2557 (706K),2022-075A,2026-07-20T21:29:46.401216,2.13102143,.00108276,64.2766,313.2973,270.8513,89.0451,0,U,52984,999,3143,0,-.88E-6,0
COSMOS 2559 (707K),2022-130A,2026-07-21T04:25:53.062752,2.13101788,.00131713,64.2489,313.3698,181.7048,178.3110,0,U,54031,999,2941,0,-.89E-6,0
COSMOS 2564 (761),2022-161A,2026-07-21T00:39:56.546784,2.13102069,.00121785,64.7442,191.5883,224.7321,135.1739,0,U,54377,999,2835,0,.9E-6,0
GPS BIII-6  (PRN 28),2023-009A,2026-07-20T14:32:11.706720,2.00569363,.00052868,55.1257,147.2053,339.0004,198.4380,0,U,55268,999,2591,0,.29E-6,0
BEIDOU-3 G4 (C62),2023-066A,2026-07-21T15:27:27.394848,1.00270914,.00051012,0.4555,340.7614,183.1913,147.3753,0,U,56564,999,1173,0,-.279E-5,0
NVS-01 (IRNSS-1J),2023-076A,2026-07-21T15:24:27.682848,1.00275975,.00029523,2.0868,242.7688,18.2288,39.0086,0,U,56759,999,1146,0,-.332E-5,0
COSMOS 2569 (703K),2023-114A,2026-07-21T00:57:37.434240,2.13103846,.00094765,65.3216,71.4791,295.3484,64.6200,0,U,57517,999,2298,0,-.52E-6,0
BEIDOU-3 M28 (C50),2023-207A,2026-07-21T03:03:49.889664,1.86229790,.0002229,55.7832,61.1582,8.8323,351.2326,0,U,58654,999,1747,0,-.82E-6,0
BEIDOU-3 M26 (C48),2023-207B,2026-07-19T20:25:47.358048,1.86229761,.00017677,55.7843,61.1877,324.3681,35.6824,0,U,58655,999,1743,0,-.78E-6,0
